[{"OBJECT_NAME":"SMOS","OBJECT_ID":"2009-059A","EPOCH":"2026-03-09T12:46:15.832416","MEAN_MOTION":14.39760281,"ECCENTRICITY":9.828e-5,"INCLINATION":98.4428,"RA_OF_ASC_NODE":257.3122,"ARG_OF_PERICENTER":82.3973,"MEAN_ANOMALY":277.7326,"EPHEMERIS_TYPE":0,"CLASSIFICATION_TYPE":"U","NORAD_CAT_ID":36036,"ELEMENT_SET_NO":999,"REV_AT_EPOCH":85911,"BSTAR":0.00013788061,"MEAN_MOTION_DOT":3.89e-6,"MEAN_MOTION_DDOT":0},{"OBJECT_NAME":"SL-8 R\/B","OBJECT_ID":"1983-079B","EPOCH":"2026-03-09T16:00:34.681248","MEAN_MOTION":14.37526277,"ECCENTRICITY":0.00162307,"INCLINATION":74.06,"RA_OF_ASC_NODE":157.5435,"ARG_OF_PERICENTER":159.0907,"MEAN_ANOMALY":201.0914,"EPHEMERIS_TYPE":0,"CLASSIFICATION_TYPE":"U","NORAD_CAT_ID":14241,"ELEMENT_SET_NO":999,"REV_AT_EPOCH":23020,"BSTAR":0.00010749195,"MEAN_MOTION_DOT":2.96e-6,"MEAN_MOTION_DDOT":0}]
